[
    {
        "Altitude(m)": 624792.7590203304,
        "Argument of Periapsis(deg)": 0.0,
        "Eccentricity": 0.0,
        "Inclination(deg)": 60.0,
        "Latitude(deg)": -59.14704800330563,
        "Longitude(deg)": 29.026560742187556,
        "Mean Anomaly(deg)": -98.18180000000004,
        "RAAN(deg)": 235.0,
        "Satellite Name": "Test1 1050",
        "Satellite Number": 1050,
        "Semi-Major Axis(m)": 6980739.136638005,
        "Time(s)": 0
    },
    {
        "Altitude(m)": 624842.1504777822,
        "Argument of Periapsis(deg)": 0.00010418945913296404,
        "Eccentricity": 0.0,
        "Inclination(deg)": 60.0,
        "Latitude(deg)": -59.28912973552682,
        "Longitude(deg)": 30.156064363224175,
        "Mean Anomaly(deg)": -97.56169385453819,
        "RAAN(deg)": 234.99957995086027,
        "Satellite Name": "Test1 1050",
        "Satellite Number": 1050,
        "Semi-Major Axis(m)": 6980739.136638005,
        "Time(s)": 10
    }
]